ABS-2                   
1 39508U 14006A   26116.50888656  .00000000  00000+0  00000+0 0  9996
2 39508   0.0242 101.7515 0003713 298.4955  72.3864  1.00269699 44764
ATHENA-FIDUS            
1 39509U 14006B   26116.50151986  .00000142  00000+0  00000+0 0  9993
2 39509   0.0400  88.4950 0001419 307.9366  36.4138  1.00270401 44564
TURKSAT 4A              
1 39522U 14007A   26116.50229987  .00000134  00000+0  00000+0 0  9997
2 39522   0.0457 293.5597 0003397  29.9868 113.7776  1.00270282 44443
EXPRESS-AT1             
1 39612U 14010A   26116.50541990  .00000052  00000+0  00000+0 0  9991
2 39612   0.1249  84.1466 0001776  17.1213 352.8232  1.00288738 44307
EXPRESS-AT2             
1 39613U 14010B   26116.50507323  .00000000  00000+0  00000+0 0  9997
2 39613   0.0109 224.4828 0000409 127.1846 100.6640  1.00272078 43973
AMAZONAS 4A             
1 39616U 14011A   26116.47933310 -.00000265  00000+0  00000+0 0  9990
2 39616   0.0562 168.5902 0002455 243.0957 261.3471  1.00273253 44192
ASTRA 5B                
1 39617U 14011B   26116.49857318  .00000124  00000+0  00000+0 0  9999
2 39617   0.0681 307.1623 0002691  65.3356  44.9846  1.00269526 44140
IRNSS-1B                
1 39635U 14017A   26116.43347843  .00000074  00000+0  00000+0 0  9990
2 39635  29.0152 241.2917 0023430 182.1973   1.9131  1.00272780 44275
LUCH-5V                 
1 39727U 14023A   26116.44145179 -.00000277  00000+0  00000+0 0  9994
2 39727   5.0082  70.2509 0002210 337.9544  59.9245  1.00271934 43848
KAZSAT-3                
1 39728U 14023B   26116.50559323  .00000000  00000+0  00000+0 0  9995
2 39728   0.0174  88.5029 0000450 182.8215 183.6995  1.00270993 41941
EUTELSAT 3B             
1 39773U 14030A   26116.35197919  .00000007  00000+0  00000+0 0  9992
2 39773   0.0702  18.0022 0003992  13.5336 312.6264  1.00272645 43544
ASIASAT 8 (AMOS-7)      
1 40107U 14046A   26116.49918668 -.00000345  00000+0  00000+0 0  9995
2 40107   0.0455  69.1797 0001456 313.7538 116.5694  1.00273767101639
ASIASAT 6               
1 40141U 14052A   26114.66390101 -.00000376  00000+0  00000+0 0  9997
2 40141   0.0516  73.2625 0000710 302.6035 195.7333  1.00269605 42541
OPTUS 10                
1 40146U 14054A   26116.45358516 -.00000160  00000+0  00000+0 0  9998
2 40146   0.1211 352.8016 0001995  39.4636 141.4946  1.00271220 42518
MEASAT-3B               
1 40147U 14054B   26116.51217992 -.00000254  00000+0  00000+0 0  9992
2 40147   0.0538  60.2772 0003308 337.5922  92.5592  1.00272035 42393
HIMAWARI-8              
1 40267U 14060A   26116.51711252  .00000000  00000+0  00000+0 0  9998
2 40267   0.0242 102.5212 0000908 293.5739 145.2567  1.00268561 42248
IRNSS-1C                
1 40269U 14061A   26116.51044656 -.00000168  00000+0  00000+0 0  9994
2 40269   6.3860  89.9116 0021568 357.9296  33.4398  1.00269690 42170
