[{"OBJECT_NAME":"ABS-2","OBJECT_ID":"2014-006A","EPOCH":"2026-04-26T12:12:47.798784","MEAN_MOTION":1.00269699,"ECCENTRICITY":0.0003713,"INCLINATION":0.0242,"RA_OF_ASC_NODE":101.7515,"ARG_OF_PERICENTER":298.4955,"MEAN_ANOMALY":72.3864,"EPHEMERIS_TYPE":0,"CLASSIFICATION_TYPE":"U","NORAD_CAT_ID":39508,"ELEMENT_SET_NO":999,"REV_AT_EPOCH":4476,"BSTAR":0,"MEAN_MOTION_DOT":0,"MEAN_MOTION_DDOT":0},{"OBJECT_NAME":"ATHENA-FIDUS","OBJECT_ID":"2014-006B","EPOCH":"2026-04-26T12:02:11.315904","MEAN_MOTION":1.00270401,"ECCENTRICITY":0.0001419,"INCLINATION":0.04,"RA_OF_ASC_NODE":88.495,"ARG_OF_PERICENTER":307.9366,"MEAN_ANOMALY":36.4138,"EPHEMERIS_TYPE":0,"CLASSIFICATION_TYPE":"U","NORAD_CAT_ID":39509,"ELEMENT_SET_NO":999,"REV_AT_EPOCH":4456,"BSTAR":0,"MEAN_MOTION_DOT":1.42e-6,"MEAN_MOTION_DDOT":0},{"OBJECT_NAME":"TURKSAT 4A","OBJECT_ID":"2014-007A","EPOCH":"2026-04-26T12:03:18.708768","MEAN_MOTION":1.00270282,"ECCENTRICITY":0.0003397,"INCLINATION":0.0457,"RA_OF_ASC_NODE":293.5597,"ARG_OF_PERICENTER":29.9868,"MEAN_ANOMALY":113.7776,"EPHEMERIS_TYPE":0,"CLASSIFICATION_TYPE":"U","NORAD_CAT_ID":39522,"ELEMENT_SET_NO":999,"REV_AT_EPOCH":4444,"BSTAR":0,"MEAN_MOTION_DOT":1.34e-6,"MEAN_MOTION_DDOT":0},{"OBJECT_NAME":"EXPRESS-AT1","OBJECT_ID":"2014-010A","EPOCH":"2026-04-26T12:07:48.279360","MEAN_MOTION":1.00288738,"ECCENTRICITY":0.0001776,"INCLINATION":0.1249,"RA_OF_ASC_NODE":84.1466,"ARG_OF_PERICENTER":17.1213,"MEAN_ANOMALY":352.8232,"EPHEMERIS_TYPE":0,"CLASSIFICATION_TYPE":"U","NORAD_CAT_ID":39612,"ELEMENT_SET_NO":999,"REV_AT_EPOCH":4430,"BSTAR":0,"MEAN_MOTION_DOT":5.2e-7,"MEAN_MOTION_DDOT":0},{"OBJECT_NAME":"EXPRESS-AT2","OBJECT_ID":"2014-010B","EPOCH":"2026-04-26T12:07:18.327072","MEAN_MOTION":1.00272078,"ECCENTRICITY":4.09e-5,"INCLINATION":0.0109,"RA_OF_ASC_NODE":224.4828,"ARG_OF_PERICENTER":127.1846,"MEAN_ANOMALY":100.664,"EPHEMERIS_TYPE":0,"CLASSIFICATION_TYPE":"U","NORAD_CAT_ID":39613,"ELEMENT_SET_NO":999,"REV_AT_EPOCH":4397,"BSTAR":0,"MEAN_MOTION_DOT":0,"MEAN_MOTION_DDOT":0},{"OBJECT_NAME":"AMAZONAS 4A","OBJECT_ID":"2014-011A","EPOCH":"2026-04-26T11:30:14.379840","MEAN_MOTION":1.00273253,"ECCENTRICITY":0.0002455,"INCLINATION":0.0562,"RA_OF_ASC_NODE":168.5902,"ARG_OF_PERICENTER":243.0957,"MEAN_ANOMALY":261.3471,"EPHEMERIS_TYPE":0,"CLASSIFICATION_TYPE":"U","NORAD_CAT_ID":39616,"ELEMENT_SET_NO":999,"REV_AT_EPOCH":4419,"BSTAR":0,"MEAN_MOTION_DOT":-2.65e-6,"MEAN_MOTION_DDOT":0},{"OBJECT_NAME":"ASTRA 5B","OBJECT_ID":"2014-011B","EPOCH":"2026-04-26T11:57:56.722752","MEAN_MOTION":1.00269526,"ECCENTRICITY":0.0002691,"INCLINATION":0.0681,"RA_OF_ASC_NODE":307.1623,"ARG_OF_PERICENTER":65.3356,"MEAN_ANOMALY":44.9846,"EPHEMERIS_TYPE":0,"CLASSIFICATION_TYPE":"U","NORAD_CAT_ID":39617,"ELEMENT_SET_NO":999,"REV_AT_EPOCH":4414,"BSTAR":0,"MEAN_MOTION_DOT":1.24e-6,"MEAN_MOTION_DDOT":0},{"OBJECT_NAME":"IRNSS-1B","OBJECT_ID":"2014-017A","EPOCH":"2026-04-26T10:24:12.536352","MEAN_MOTION":1.0027278,"ECCENTRICITY":0.002343,"INCLINATION":29.0152,"RA_OF_ASC_NODE":241.2917,"ARG_OF_PERICENTER":182.1973,"MEAN_ANOMALY":1.9131,"EPHEMERIS_TYPE":0,"CLASSIFICATION_TYPE":"U","NORAD_CAT_ID":39635,"ELEMENT_SET_NO":999,"REV_AT_EPOCH":4427,"BSTAR":0,"MEAN_MOTION_DOT":7.4e-7,"MEAN_MOTION_DDOT":0},{"OBJECT_NAME":"LUCH-5V","OBJECT_ID":"2014-023A","EPOCH":"2026-04-26T10:35:41.434656","MEAN_MOTION":1.00271934,"ECCENTRICITY":0.000221,"INCLINATION":5.0082,"RA_OF_ASC_NODE":70.2509,"ARG_OF_PERICENTER":337.9544,"MEAN_ANOMALY":59.9245,"EPHEMERIS_TYPE":0,"CLASSIFICATION_TYPE":"U","NORAD_CAT_ID":39727,"ELEMENT_SET_NO":999,"REV_AT_EPOCH":4384,"BSTAR":0,"MEAN_MOTION_DOT":-2.77e-6,"MEAN_MOTION_DDOT":0},{"OBJECT_NAME":"KAZSAT-3","OBJECT_ID":"2014-023B","EPOCH":"2026-04-26T12:08:03.255072","MEAN_MOTION":1.00270993,"ECCENTRICITY":4.5e-5,"INCLINATION":0.0174,"RA_OF_ASC_NODE":88.5029,"ARG_OF_PERICENTER":182.8215,"MEAN_ANOMALY":183.6995,"EPHEMERIS_TYPE":0,"CLASSIFICATION_TYPE":"U","NORAD_CAT_ID":39728,"ELEMENT_SET_NO":999,"REV_AT_EPOCH":4194,"BSTAR":0,"MEAN_MOTION_DOT":0,"MEAN_MOTION_DDOT":0},{"OBJECT_NAME":"EUTELSAT 3B","OBJECT_ID":"2014-030A","EPOCH":"2026-04-26T08:26:51.002016","MEAN_MOTION":1.00272645,"ECCENTRICITY":0.0003992,"INCLINATION":0.0702,"RA_OF_ASC_NODE":18.0022,"ARG_OF_PERICENTER":13.5336,"MEAN_ANOMALY":312.6264,"EPHEMERIS_TYPE":0,"CLASSIFICATION_TYPE":"U","NORAD_CAT_ID":39773,"ELEMENT_SET_NO":999,"REV_AT_EPOCH":4354,"BSTAR":0,"MEAN_MOTION_DOT":7.0e-8,"MEAN_MOTION_DDOT":0},{"OBJECT_NAME":"ASIASAT 8 (AMOS-7)","OBJECT_ID":"2014-046A","EPOCH":"2026-04-26T11:58:49.729152","MEAN_MOTION":1.00273767,"ECCENTRICITY":0.0001456,"INCLINATION":0.0455,"RA_OF_ASC_NODE":69.1797,"ARG_OF_PERICENTER":313.7538,"MEAN_ANOMALY":116.5694,"EPHEMERIS_TYPE":0,"CLASSIFICATION_TYPE":"U","NORAD_CAT_ID":40107,"ELEMENT_SET_NO":999,"REV_AT_EPOCH":10163,"BSTAR":0,"MEAN_MOTION_DOT":-3.45e-6,"MEAN_MOTION_DDOT":0},{"OBJECT_NAME":"ASIASAT 6","OBJECT_ID":"2014-052A","EPOCH":"2026-04-24T15:56:01.047264","MEAN_MOTION":1.00269605,"ECCENTRICITY":7.1e-5,"INCLINATION":0.0516,"RA_OF_ASC_NODE":73.2625,"ARG_OF_PERICENTER":302.6035,"MEAN_ANOMALY":195.7333,"EPHEMERIS_TYPE":0,"CLASSIFICATION_TYPE":"U","NORAD_CAT_ID":40141,"ELEMENT_SET_NO":999,"REV_AT_EPOCH":4254,"BSTAR":0,"MEAN_MOTION_DOT":-3.76e-6,"MEAN_MOTION_DDOT":0},{"OBJECT_NAME":"OPTUS 10","OBJECT_ID":"2014-054A","EPOCH":"2026-04-26T10:53:09.757824","MEAN_MOTION":1.0027122,"ECCENTRICITY":0.0001995,"INCLINATION":0.1211,"RA_OF_ASC_NODE":352.8016,"ARG_OF_PERICENTER":39.4636,"MEAN_ANOMALY":141.4946,"EPHEMERIS_TYPE":0,"CLASSIFICATION_TYPE":"U","NORAD_CAT_ID":40146,"ELEMENT_SET_NO":999,"REV_AT_EPOCH":4251,"BSTAR":0,"MEAN_MOTION_DOT":-1.6e-6,"MEAN_MOTION_DDOT":0},{"OBJECT_NAME":"MEASAT-3B","OBJECT_ID":"2014-054B","EPOCH":"2026-04-26T12:17:32.345088","MEAN_MOTION":1.00272035,"ECCENTRICITY":0.0003308,"INCLINATION":0.0538,"RA_OF_ASC_NODE":60.2772,"ARG_OF_PERICENTER":337.5922,"MEAN_ANOMALY":92.5592,"EPHEMERIS_TYPE":0,"CLASSIFICATION_TYPE":"U","NORAD_CAT_ID":40147,"ELEMENT_SET_NO":999,"REV_AT_EPOCH":4239,"BSTAR":0,"MEAN_MOTION_DOT":-2.54e-6,"MEAN_MOTION_DDOT":0},{"OBJECT_NAME":"HIMAWARI-8","OBJECT_ID":"2014-060A","EPOCH":"2026-04-26T12:24:38.521728","MEAN_MOTION":1.00268561,"ECCENTRICITY":9.08e-5,"INCLINATION":0.0242,"RA_OF_ASC_NODE":102.5212,"ARG_OF_PERICENTER":293.5739,"MEAN_ANOMALY":145.2567,"EPHEMERIS_TYPE":0,"CLASSIFICATION_TYPE":"U","NORAD_CAT_ID":40267,"ELEMENT_SET_NO":999,"REV_AT_EPOCH":4224,"BSTAR":0,"MEAN_MOTION_DOT":0,"MEAN_MOTION_DDOT":0},{"OBJECT_NAME":"IRNSS-1C","OBJECT_ID":"2014-061A","EPOCH":"2026-04-26T12:15:02.582784","MEAN_MOTION":1.0026969,"ECCENTRICITY":0.0021568,"INCLINATION":6.386,"RA_OF_ASC_NODE":89.9116,"ARG_OF_PERICENTER":357.9296,"MEAN_ANOMALY":33.4398,"EPHEMERIS_TYPE":0,"CLASSIFICATION_TYPE":"U","NORAD_CAT_ID":40269,"ELEMENT_SET_NO":999,"REV_AT_EPOCH":4217,"BSTAR":0,"MEAN_MOTION_DOT":-1.68e-6,"MEAN_MOTION_DDOT":0}]
